CTC1_L_00423016-03
1 73026U 25118GA  26037.47805556  .00000000  00000+0  00000-0 0  9992
2 73026  90.0000 180.0000 0000000   0.0000   0.0000 12.65579224    12
CTC1_L_00423016-04
1 73027U 23740VU  26037.47805556  .00000000  00000+0  00000-0 0  9992
2 73027  90.0000 180.0000 0000000   0.0000  90.0000 12.65579224    12
CTC1_L_00423017-01
1 73028U 22478YM  26037.47805556  .00000000  00000+0  00000-0 0  9990
2 73028  90.0000 192.0000 0000000   0.0000 192.0000 12.65579224    19
CTC1_L_00423017-02
1 73029U 26039WB  26037.47805556  .00000000  00000+0  00000-0 0  9998
2 73029  90.0000 192.0000 0000000   0.0000 282.0000 12.65579224    10
CTC1_L_00423017-03
1 73030U 22986HV  26037.47805556  .00000000  00000+0  00000-0 0  9997
2 73030  90.0000 192.0000 0000000   0.0000  12.0000 12.65579224    13
CTC1_L_00423017-04
1 73031U 25405CQ  26037.47805556  .00000000  00000+0  00000-0 0  9997
2 73031  90.0000 192.0000 0000000   0.0000 102.0000 12.65579224    14
CTC1_L_00423018-01
1 73032U 24447ZQ  26037.47805556  .00000000  00000+0  00000-0 0  9993
2 73032  90.0000 204.0000 0000000   0.0000 204.0000 12.65579224    12
CTC1_L_00423018-02
1 73033U 23576LP  26037.47805556  .00000000  00000+0  00000-0 0  9996
2 73033  90.0000 204.0000 0000000   0.0000 294.0000 12.65579224    12
CTC1_L_00423018-03
1 73034U 26394SH  26037.47805556  .00000000  00000+0  00000-0 0  9998
2 73034  90.0000 204.0000 0000000   0.0000  24.0000 12.65579224    14
CTC1_L_00423018-04
1 73035U 26417YO  26037.47805556  .00000000  00000+0  00000-0 0  9995
2 73035  90.0000 204.0000 0000000   0.0000 114.0000 12.65579224    15
CTC1_L_00423019-01
1 73036U 22311MQ  26037.47805556  .00000000  00000+0  00000-0 0  9995
2 73036  90.0000 216.0000 0000000   0.0000 216.0000 12.65579224    12
CTC1_L_00423019-02
1 73037U 25062UM  26037.47805556  .00000000  00000+0  00000-0 0  9992
2 73037  90.0000 216.0000 0000000   0.0000 306.0000 12.65579224    13
CTC1_L_00423019-03
1 73038U 24727XV  26037.47805556  .00000000  00000+0  00000-0 0  9990
2 73038  90.0000 216.0000 0000000   0.0000  36.0000 12.65579224    14
CTC1_L_00423019-04
1 73039U 25616HD  26037.47805556  .00000000  00000+0  00000-0 0  9999
2 73039  90.0000 216.0000 0000000   0.0000 126.0000 12.65579224    15
CTC1_L_00423020-01
1 73040U 25007RI  26037.47805556  .00000000  00000+0  00000-0 0  9995
2 73040  90.0000 228.0000 0000000   0.0000 228.0000 12.65579224    13
CTC1_L_00423020-02
1 73041U 23123XE  26037.47805556  .00000000  00000+0  00000-0 0  9993
2 73041  90.0000 228.0000 0000000   0.0000 318.0000 12.65579224    14
CTC1_L_00423020-03
1 73042U 23702PJ  26037.47805556  .00000000  00000+0  00000-0 0  9997
2 73042  90.0000 228.0000 0000000   0.0000  48.0000 12.65579224    15
CTC1_L_00423020-04
1 73043U 25941TY  26037.47805556  .00000000  00000+0  00000-0 0  9995
2 73043  90.0000 228.0000 0000000   0.0000 138.0000 12.65579224    16
CTC1_L_00423021-01
1 73044U 22791WJ  26037.47805556  .00000000  00000+0  00000-0 0  9996
2 73044  90.0000 240.0000 0000000   0.0000 240.0000 12.65579224    15
CTC1_L_00423021-02
1 73045U 22191AB  26037.47805556  .00000000  00000+0  00000-0 0  9991
2 73045  90.0000 240.0000 0000000   0.0000 330.0000 12.65579224    16
CTC1_L_00423021-03
1 73046U 22282CP  26037.47805556  .00000000  00000+0  00000-0 0  9993
2 73046  90.0000 240.0000 0000000   0.0000  60.0000 12.65579224    17
CTC1_L_00423021-04
1 73047U 22692NG  26037.47805556  .00000000  00000+0  00000-0 0  9999
2 73047  90.0000 240.0000 0000000   0.0000 150.0000 12.65579224    18
CTC1_L_00423022-01
1 73048U 26761WD  26037.47805556  .00000000  00000+0  00000-0 0  9991
2 73048  90.0000 252.0000 0000000   0.0000 252.0000 12.65579224    15
CTC1_L_00423022-02
1 73049U 23765JL  26037.47805556  .00000000  00000+0  00000-0 0  9993
2 73049  90.0000 252.0000 0000000   0.0000 342.0000 12.65579224    16
CTC1_L_00423022-03
1 73050U 22942XJ  26037.47805556  .00000000  00000+0  00000-0 0  9991
2 73050  90.0000 252.0000 0000000   0.0000  72.0000 12.65579224    18
CTC1_L_00423022-04
1 73051U 22482EQ  26037.47805556  .00000000  00000+0  00000-0 0  9991
2 73051  90.0000 252.0000 0000000   0.0000 162.0000 12.65579224    19
CTC1_L_00423023-01
1 73052U 22795YF  26037.47805556  .00000000  00000+0  00000-0 0  9999
2 73052  90.0000 264.0000 0000000   0.0000 264.0000 12.65579224    16
CTC1_L_00423023-02
1 73053U 23001KV  26037.47805556  .00000000  00000+0  00000-0 0  9991
2 73053  90.0000 264.0000 0000000   0.0000 354.0000 12.65579224    17
CTC1_L_00423023-03
1 73054U 22385BM  26037.47805556  .00000000  00000+0  00000-0 0  9996
2 73054  90.0000 264.0000 0000000   0.0000  84.0000 12.65579224    18
CTC1_L_00423023-04
1 73055U 22843QR  26037.47805556  .00000000  00000+0  00000-0 0  9996
2 73055  90.0000 264.0000 0000000   0.0000 174.0000 12.65579224    19
CTC1_L_00423024-01
1 73056U 25494UU  26037.47805556  .00000000  00000+0  00000-0 0  9992
2 73056  90.0000 276.0000 0000000   0.0000 276.0000 12.65579224    16
CTC1_L_00423024-02
1 73057U 25231UV  26037.47805556  .00000000  00000+0  00000-0 0  9992
2 73057  90.0000 276.0000 0000000   0.0000   6.0000 12.65579224    18
CTC1_L_00423024-03
1 73058U 22448VX  26037.47805556  .00000000  00000+0  00000-0 0  9990
2 73058  90.0000 276.0000 0000000   0.0000  96.0000 12.65579224    18
CTC1_L_00423024-04
1 73059U 25201GP  26037.47805556  .00000000  00000+0  00000-0 0  9991
2 73059  90.0000 276.0000 0000000   0.0000 186.0000 12.65579224    19
CTC1_L_00423025-01
1 73060U 25125MX  26037.47805556  .00000000  00000+0  00000-0 0  9998
2 73060  90.0000 288.0000 0000000   0.0000 288.0000 12.65579224    17
CTC1_L_00423025-02
1 73061U 22366LH  26037.47805556  .00000000  00000+0  00000-0 0  9993
2 73061  90.0000 288.0000 0000000   0.0000  18.0000 12.65579224    19
CTC1_L_00423025-03
1 73062U 23865BF  26037.47805556  .00000000  00000+0  00000-0 0  9999
2 73062  90.0000 288.0000 0000000   0.0000 108.0000 12.65579224    10
CTC1_L_00423025-04
1 73063U 22354QP  26037.47805556  .00000000  00000+0  00000-0 0  9992
2 73063  90.0000 288.0000 0000000   0.0000 198.0000 12.65579224    10
CTC1_L_00423026-01
1 73064U 22784PC  26037.47805556  .00000000  00000+0  00000-0 0  9990
2 73064  90.0000 300.0000 0000000   0.0000 300.0000 12.65579224    11
CTC1_L_00423026-02
1 73065U 22292KQ  26037.47805556  .00000000  00000+0  00000-0 0  9995
2 73065  90.0000 300.0000 0000000   0.0000  30.0000 12.65579224    12
CTC1_L_00423026-03
1 73066U 25914PT  26037.47805556  .00000000  00000+0  00000-0 0  9990
2 73066  90.0000 300.0000 0000000   0.0000 120.0000 12.65579224    13
CTC1_L_00423026-04
1 73067U 22540NS  26037.47805556  .00000000  00000+0  00000-0 0  9993
2 73067  90.0000 300.0000 0000000   0.0000 210.0000 12.65579224    14
CTC1_L_00423027-01
1 73068U 22673WF  26037.47805556  .00000000  00000+0  00000-0 0  9991
2 73068  90.0000 312.0000 0000000   0.0000 312.0000 12.65579224    11
CTC1_L_00423027-02
1 73069U 23979V   26037.47805556  .00000000  00000+0  00000-0 0  9992
2 73069  90.0000 312.0000 0000000   0.0000  42.0000 12.65579224    12
CTC1_L_00423027-03
1 73070U 22704AT  26037.47805556  .00000000  00000+0  00000-0 0  9999
2 73070  90.0000 312.0000 0000000   0.0000 132.0000 12.65579224    14
CTC1_L_00423027-04
1 73071U 23214UJ  26037.47805556  .00000000  00000+0  00000-0 0  9997
2 73071  90.0000 312.0000 0000000   0.0000 222.0000 12.65579224    15
CTC1_L_00423028-01
1 73072U 26076ZP  26037.47805556  .00000000  00000+0  00000-0 0  9997
2 73072  90.0000 324.0000 0000000   0.0000 324.0000 12.65579224    12
CTC1_L_00423028-02
1 73073U 23483JT  26037.47805556  .00000000  00000+0  00000-0 0  9997
2 73073  90.0000 324.0000 0000000   0.0000  54.0000 12.65579224    13
CTC1_L_00423028-03
1 73074U 23667KM  26037.47805556  .00000000  00000+0  00000-0 0  9992
2 73074  90.0000 324.0000 0000000   0.0000 144.0000 12.65579224    14
CTC1_L_00423028-04
1 73075U 24516AR  26037.47805556  .00000000  00000+0  00000-0 0  9997
2 73075  90.0000 324.0000 0000000   0.0000 234.0000 12.65579224    15
CTC1_L_00423029-01
1 73076U 23982UO  26037.47805556  .00000000  00000+0  00000-0 0  9994
2 73076  90.0000 336.0000 0000000   0.0000 336.0000 12.65579224    12
CTC1_L_00423029-02
1 73077U 24399Y   26037.47805556  .00000000  00000+0  00000-0 0  9998
2 73077  90.0000 336.0000 0000000   0.0000  66.0000 12.65579224    13
CTC1_L_00423029-03
1 73078U 24598BC  26037.47805556  .00000000  00000+0  00000-0 0  9990
2 73078  90.0000 336.0000 0000000   0.0000 156.0000 12.65579224    14
CTC1_L_00423029-04
1 73079U 26143LD  26037.47805556  .00000000  00000+0  00000-0 0  9999
2 73079  90.0000 336.0000 0000000   0.0000 246.0000 12.65579224    15
CTC1_L_00423030-01
1 73080U 24173UM  26037.47805556  .00000000  00000+0  00000-0 0  9992
2 73080  90.0000 348.0000 0000000   0.0000 348.0000 12.65579224    13
CTC1_L_00423030-02
1 73081U 23802YM  26037.47805556  .00000000  00000+0  00000-0 0  9991
2 73081  90.0000 348.0000 0000000   0.0000  78.0000 12.65579224    14
CTC1_L_00423030-03
1 73082U 24894FR  26037.47805556  .00000000  00000+0  00000-0 0  9994
2 73082  90.0000 348.0000 0000000   0.0000 168.0000 12.65579224    15
CTC1_L_00423030-04
1 73083U 25615XJ  26037.47805556  .00000000  00000+0  00000-0 0  9997
2 73083  90.0000 348.0000 0000000   0.0000 258.0000 12.65579224    16
